{
  "type": "FeatureCollection",
  "features": [
    {
      "type": "Feature",
      "properties": {
        "norad_id": 59626,
        "name": "LEGION 2",
        "group": "resource",
        "lat": 4.615678795194676,
        "lon": 57.34706276616379,
        "alt_km": 516.7828238593283,
        "timestamp": "2025-12-09T04:51:47.165433+00:00",
        "meta_object_name": "LEGION 2",
        "meta_object_id": "2024-081B",
        "meta_epoch": "2025-12-08T19:20:26.399904",
        "meta_mean_motion": 15.16433807,
        "meta_eccentricity": 0.0005871,
        "meta_inclination": 97.5217,
        "meta_ra_of_asc_node": 57.5649,
        "meta_arg_of_pericenter": 310.5188,
        "meta_mean_anomaly": 49.5533,
        "meta_ephemeris_type": 0,
        "meta_classification_type": "U",
        "meta_norad_cat_id": 59626,
        "meta_element_set_no": 999,
        "meta_rev_at_epoch": 8868,
        "meta_bstar": 0.00040144,
        "meta_mean_motion_dot": 7.744e-05,
        "meta_mean_motion_ddot": 0,
        "tle_line1": "1 59626U 24081B   25342.80586111  .00007744  00000+0  40144-3 0  9996",
        "tle_line2": "2 59626  97.5217  57.5649 0005871 310.5188  49.5533 15.16433807 88681"
      },
      "geometry": {
        "type": "Point",
        "coordinates": [
          57.34706276616379,
          4.615678795194676
        ]
      }
    },
    {
      "type": "Feature",
      "properties": {
        "norad_id": 60182,
        "name": "ALOS-4 (DAICHI-4)",
        "group": "resource",
        "lat": 47.18157547320924,
        "lon": -93.25615354865111,
        "alt_km": 625.9890335796508,
        "timestamp": "2025-12-09T04:51:47.165460+00:00",
        "meta_object_name": "ALOS-4 (DAICHI-4)",
        "meta_object_id": "2024-123A",
        "meta_epoch": "2025-12-08T20:09:07.265952",
        "meta_mean_motion": 14.79472164,
        "meta_eccentricity": 0.0001441,
        "meta_inclination": 97.9223,
        "meta_ra_of_asc_node": 77.7429,
        "meta_arg_of_pericenter": 99.3201,
        "meta_mean_anomaly": 260.8173,
        "meta_ephemeris_type": 0,
        "meta_classification_type": "U",
        "meta_norad_cat_id": 60182,
        "meta_element_set_no": 999,
        "meta_rev_at_epoch": 7773,
        "meta_bstar": 0.00053163,
        "meta_mean_motion_dot": 3.921e-05,
        "meta_mean_motion_ddot": 0,
        "tle_line1": "1 60182U 24123A   25342.83966743  .00003921  00000+0  53163-3 0  9996",
        "tle_line2": "2 60182  97.9223  77.7429 0001441  99.3201 260.8173 14.79472164 77737"
      },
      "geometry": {
        "type": "Point",
        "coordinates": [
          -93.25615354865111,
          47.18157547320924
        ]
      }
    },
    {
      "type": "Feature",
      "properties": {
        "norad_id": 60452,
        "name": "LEGION 3",
        "group": "resource",
        "lat": 20.62037911868478,
        "lon": -8.789608403543136,
        "alt_km": 524.3744197352162,
        "timestamp": "2025-12-09T04:51:47.165473+00:00",
        "meta_object_name": "LEGION 3",
        "meta_object_id": "2024-146A",
        "meta_epoch": "2025-12-08T19:14:27.140064",
        "meta_mean_motion": 15.15698413,
        "meta_eccentricity": 0.0014417,
        "meta_inclination": 45.0027,
        "meta_ra_of_asc_node": 331.243,
        "meta_arg_of_pericenter": 177.2117,
        "meta_mean_anomaly": 182.8844,
        "meta_ephemeris_type": 0,
        "meta_classification_type": "U",
        "meta_norad_cat_id": 60452,
        "meta_element_set_no": 999,
        "meta_rev_at_epoch": 7313,
        "meta_bstar": 0.00042527,
        "meta_mean_motion_dot": 7.999e-05,
        "meta_mean_motion_ddot": 0,
        "tle_line1": "1 60452U 24146A   25342.80170301  .00007999  00000+0  42527-3 0  9996",
        "tle_line2": "2 60452  45.0027 331.2430 0014417 177.2117 182.8844 15.15698413 73138"
      },
      "geometry": {
        "type": "Point",
        "coordinates": [
          -8.789608403543136,
          20.62037911868478
        ]
      }
    },
    {
      "type": "Feature",
      "properties": {
        "norad_id": 60453,
        "name": "LEGION 4",
        "group": "resource",
        "lat": 18.138166017364128,
        "lon": 79.94272665575195,
        "alt_km": 516.3942994334793,
        "timestamp": "2025-12-09T04:51:47.165484+00:00",
        "meta_object_name": "LEGION 4",
        "meta_object_id": "2024-146B",
        "meta_epoch": "2025-12-08T17:40:35.220000",
        "meta_mean_motion": 15.15761201,
        "meta_eccentricity": 0.0009823,
        "meta_inclination": 45.0386,
        "meta_ra_of_asc_node": 63.3316,
        "meta_arg_of_pericenter": 290.2518,
        "meta_mean_anomaly": 69.7305,
        "meta_ephemeris_type": 0,
        "meta_classification_type": "U",
        "meta_norad_cat_id": 60453,
        "meta_element_set_no": 999,
        "meta_rev_at_epoch": 7197,
        "meta_bstar": 0.0004244,
        "meta_mean_motion_dot": 7.987e-05,
        "meta_mean_motion_ddot": 0,
        "tle_line1": "1 60453U 24146B   25342.73651875  .00007987  00000+0  42440-3 0  9990",
        "tle_line2": "2 60453  45.0386  63.3316 0009823 290.2518  69.7305 15.15761201 71970"
      },
      "geometry": {
        "type": "Point",
        "coordinates": [
          79.94272665575195,
          18.138166017364128
        ]
      }
    },
    {
      "type": "Feature",
      "properties": {
        "norad_id": 60989,
        "name": "SENTINEL-2C",
        "group": "resource",
        "lat": 25.0744465105498,
        "lon": -120.2186872170929,
        "alt_km": 787.766367262624,
        "timestamp": "2025-12-09T04:51:47.165494+00:00",
        "meta_object_name": "SENTINEL-2C",
        "meta_object_id": "2024-157A",
        "meta_epoch": "2025-12-08T19:45:06.397344",
        "meta_mean_motion": 14.30815796,
        "meta_eccentricity": 0.0001188,
        "meta_inclination": 98.5686,
        "meta_ra_of_asc_node": 55.3619,
        "meta_arg_of_pericenter": 97.5465,
        "meta_mean_anomaly": 262.5853,
        "meta_ephemeris_type": 0,
        "meta_classification_type": "U",
        "meta_norad_cat_id": 60989,
        "meta_element_set_no": 999,
        "meta_rev_at_epoch": 6576,
        "meta_bstar": 0.00017147,
        "meta_mean_motion_dot": 4.06e-06,
        "meta_mean_motion_ddot": 0,
        "tle_line1": "1 60989U 24157A   25342.82299071  .00000406  00000+0  17147-3 0  9997",
        "tle_line2": "2 60989  98.5686  55.3619 0001188  97.5465 262.5853 14.30815796 65768"
      },
      "geometry": {
        "type": "Point",
        "coordinates": [
          -120.2186872170929,
          25.0744465105498
        ]
      }
    },
    {
      "type": "Feature",
      "properties": {
        "norad_id": 61735,
        "name": "IONOSFERA-M 1",
        "group": "resource",
        "lat": 15.815926322381543,
        "lon": 35.57572867708375,
        "alt_km": 817.4512728951531,
        "timestamp": "2025-12-09T04:51:47.165504+00:00",
        "meta_object_name": "IONOSFERA-M 1",
        "meta_object_id": "2024-199A",
        "meta_epoch": "2025-12-08T21:20:37.935744",
        "meta_mean_motion": 14.22712896,
        "meta_eccentricity": 0.0001142,
        "meta_inclination": 98.7413,
        "meta_ra_of_asc_node": 212.767,
        "meta_arg_of_pericenter": 27.0748,
        "meta_mean_anomaly": 333.049,
        "meta_ephemeris_type": 0,
        "meta_classification_type": "U",
        "meta_norad_cat_id": 61735,
        "meta_element_set_no": 999,
        "meta_rev_at_epoch": 10064,
        "meta_bstar": 9.1622e-05,
        "meta_mean_motion_dot": 1.61e-06,
        "meta_mean_motion_ddot": 0,
        "tle_line1": "1 61735U 24199A   25342.88932796  .00000161  00000+0  91622-4 0  9996",
        "tle_line2": "2 61735  98.7413 212.7670 0001142  27.0748 333.0490 14.22712896100642"
      },
      "geometry": {
        "type": "Point",
        "coordinates": [
          35.57572867708375,
          15.815926322381543
        ]
      }
    },
    {
      "type": "Feature",
      "properties": {
        "norad_id": 61736,
        "name": "IONOSFERA-M 2",
        "group": "resource",
        "lat": -13.460300727254083,
        "lon": -144.8992439660483,
        "alt_km": 821.3619961278819,
        "timestamp": "2025-12-09T04:51:47.165514+00:00",
        "meta_object_name": "IONOSFERA-M 2",
        "meta_object_id": "2024-199B",
        "meta_epoch": "2025-12-08T20:29:15.501696",
        "meta_mean_motion": 14.22715028,
        "meta_eccentricity": 0.0001556,
        "meta_inclination": 98.7412,
        "meta_ra_of_asc_node": 212.6442,
        "meta_arg_of_pericenter": 115.1556,
        "meta_mean_anomaly": 244.9783,
        "meta_ephemeris_type": 0,
        "meta_classification_type": "U",
        "meta_norad_cat_id": 61736,
        "meta_element_set_no": 999,
        "meta_rev_at_epoch": 10376,
        "meta_bstar": 9.4336e-05,
        "meta_mean_motion_dot": 1.67e-06,
        "meta_mean_motion_ddot": 0,
        "tle_line1": "1 61736U 24199B   25342.85365164  .00000167  00000+0  94336-4 0  9994",
        "tle_line2": "2 61736  98.7412 212.6442 0001556 115.1556 244.9783 14.22715028103764"
      },
      "geometry": {
        "type": "Point",
        "coordinates": [
          -144.8992439660483,
          -13.460300727254083
        ]
      }
    }
  ]
}